OBJECT_NAME,OBJECT_ID,EPOCH,MEAN_MOTION,ECCENTRICITY,INCLINATION,RA_OF_ASC_NODE,ARG_OF_PERICENTER,MEAN_ANOMALY,EPHEMERIS_TYPE,CLASSIFICATION_TYPE,NORAD_CAT_ID,ELEMENT_SET_NO,REV_AT_EPOCH,BSTAR,MEAN_MOTION_DOT,MEAN_MOTION_DDOT
CUBEBUG-2 (LO-74),2013-066AA,2026-07-23T20:02:34.628928,14.94009532,.00555,97.8914,153.9789,265.9774,93.5100,0,U,39440,999,68246,.23515E-3,.2521E-4,0
FUNCUBE-1 (AO-73),2013-066AE,2026-07-23T12:15:07.741728,15.09909897,.0038149,97.8300,176.7303,80.8155,279.7386,0,U,39444,999,68514,.46628E-3,.7621E-4,0
UWE-3,2013-066AG,2026-07-23T20:11:31.755264,14.97246613,.0047902,97.8727,161.1728,194.9882,164.9923,0,U,39446,999,68306,.29571E-3,.3442E-4,0
UNISAT-6,2014-033C,2026-07-23T08:53:40.826688,14.88391794,.0043655,97.7918,356.4577,310.2648,49.4755,0,U,40012,999,65154,.21533E-3,.1973E-4,0
DUCHIFAT-1,2014-033M,2026-07-23T03:04:09.829056,15.72917143,.0003896,98.0412,268.5702,226.4566,133.6372,0,U,40021,999,66138,.12882E-2,.177994E-2,0
QB50P1,2014-033R,2026-07-22T19:10:54.290208,15.18749882,.00105654,98.0975,217.4558,102.9257,257.3156,0,U,40025,999,65843,.41699772E-3,.8602E-4,0
LILACSAT-2,2015-049K,2026-07-23T21:26:12.814368,15.52609279,.0008639,97.4631,243.1525,116.2559,243.9583,0,U,40908,999,60144,.34572E-3,.21214E-3,0
FOX-1A (AO-85),2015-058D,2026-07-23T07:15:55.096128,14.91129767,.0133071,64.7741,166.7324,42.7370,318.3997,0,U,40967,999,11895,.33669E-3,.3792E-4,0
CAS-2T & KS-1Q,2016-066G,2026-07-23T11:04:37.519968,14.44780560,.0341786,98.3807,279.7826,19.7084,341.6950,0,U,41847,999,51003,.98274E-4,.639E-5,0
RADFXSAT (FOX-1B),2017-073E,2026-07-23T12:25:45.784992,15.13146521,.0148677,97.4662,70.9927,202.5578,156.9074,0,U,43017,999,47088,.36402E-3,.8409E-4,0
DIWATA-2B,2018-084H,2026-07-23T20:18:41.552064,15.00587913,.001228,98.1225,42.6621,57.4722,302.7685,0,U,43678,999,42171,.17702E-3,.2173E-4,0
ES'HAIL 2,2018-090A,2026-07-23T13:06:23.457312,1.00273645,.0002702,0.0186,49.6880,107.0586,6.9459,0,U,43700,999,2804,0,0,0
FOX-1CLIFF (AO-95),2018-099N,2026-07-23T02:49:04.895328,15.27399464,.00079561,97.4362,264.2441,208.6564,151.4239,0,U,43770,999,41870,.48430392E-3,.12936E-3,0
ITASAT,2018-099AE,2026-07-23T13:49:02.316864,15.19457884,.0011442,97.4011,255.3665,217.9737,142.0692,0,U,43786,999,41843,.30659E-3,.6444E-4,0
JY1SAT (JO-97),2018-099AX,2026-07-23T10:11:16.291968,15.34728198,.0007346,97.4109,267.4075,133.9181,226.2670,0,U,43803,999,41918,.5304E-3,.17809E-3,0
UWE-4,2018-111E,2026-07-23T18:08:13.136640,15.48253700,.0007599,97.5823,134.8907,164.6158,195.5324,0,U,43880,999,41643,.65482E-3,.34567E-3,0
TIANYAN 01,2019-093C,2026-07-23T20:44:12.807168,14.86567508,.0012832,97.7512,276.1992,332.4044,27.6490,0,U,44881,999,35686,.27741E-4,.192E-5,0
RS-44 & BREEZE-KM R/B,2019-096E,2026-07-23T14:14:45.509856,12.79748902,.021835,82.5245,315.5155,59.4462,302.7988,0,U,44909,999,30700,-.22705E-4,.7E-7,0
SALSAT,2020-068K,2026-07-23T10:36:40.859712,15.30258663,.0010091,97.8868,209.7289,164.5021,195.6529,0,U,46495,999,32090,.25456E-3,.7378E-4,0
XW-3 (CAS-9),2021-131B,2026-07-23T20:18:45.535104,14.41387583,.000403,98.4979,297.0386,7.3516,352.7731,0,U,50466,999,24039,.16308E-3,.484E-5,0
GREENCUBE (IO-117),2022-080E,2026-07-23T14:28:38.087040,6.42583371,.0009166,70.1385,285.5830,281.8194,78.1437,0,U,53109,999,9440,0,-.3E-7,0
UMKA 1 (RS40S),2023-091G,2026-07-23T20:51:25.858656,15.21192425,.0012147,97.5032,263.4297,359.8400,0.2829,0,U,57172,999,16958,.24686E-3,.5444E-4,0
CUBESX-HSE 3 (RS42S),2023-091N,2026-07-23T19:47:10.135104,15.32046871,.0008902,97.5074,270.8923,328.6922,31.3788,0,U,57178,999,17003,.40958E-3,.12615E-3,0
MONITOR-3 (RS58S),2023-091Q,2026-07-23T20:47:36.432096,15.28499548,.0010147,97.5065,268.5943,337.5725,22.5069,0,U,57180,999,16989,.36799E-3,.10148E-3,0
MONITOR-4 (RS57S),2023-091S,2026-07-23T20:14:29.396256,15.28588679,.001013,97.5059,268.5443,338.1076,21.9729,0,U,57182,999,16989,.3677E-3,.10167E-3,0
MONITOR-2 (RS39S),2023-091U,2026-07-23T20:54:49.015296,15.19212131,.0010513,97.5053,262.9196,354.2056,5.9055,0,U,57184,999,16952,.21016E-3,.4361E-4,0
SVYATOBOR 1 (RS60S),2023-091X,2026-07-23T19:46:13.212192,15.27170432,.0007901,97.5071,268.8533,331.9858,28.0954,0,U,57187,999,16990,.30615E-3,.8087E-4,0
VIZARD-METEO (RS38S),2023-091Z,2026-07-23T19:27:51.539616,15.37085049,.0005163,97.5073,275.0548,301.3378,58.7360,0,U,57189,999,17031,.45865E-3,.16585E-3,0
POLYTECH-UNIVERSE 3 (RS46S),2023-091AB,2026-07-23T19:51:53.879616,15.19426468,.0015215,97.5029,262.3804,8.6074,351.5419,0,U,57191,999,16951,.23228E-3,.4865E-4,0
UTMN 2 (RS27S),2023-091AP,2026-07-23T19:44:09.722400,15.32860424,.0006078,97.5069,272.5683,314.5905,45.4841,0,U,57203,999,17015,.39478E-3,.12462E-3,0
