CUBEBUG-2 (LO-74)       
1 39440U 13066AA  26204.83512302  .00002521  00000+0  23515-3 0  9992
2 39440  97.8914 153.9789 0055500 265.9774  93.5100 14.94009532682468
FUNCUBE-1 (AO-73)       
1 39444U 13066AE  26204.51050627  .00007621  00000+0  46628-3 0  9994
2 39444  97.8300 176.7303 0038149  80.8155 279.7386 15.09909897685145
UWE-3                   
1 39446U 13066AG  26204.84133976  .00003442  00000+0  29571-3 0  9996
2 39446  97.8727 161.1728 0047902 194.9882 164.9923 14.97246613683067
UNISAT-6                
1 40012U 14033C   26204.37061142  .00001973  00000+0  21533-3 0  9992
2 40012  97.7918 356.4577 0043655 310.2648  49.4755 14.88391794651543
DUCHIFAT-1              
1 40021U 14033M   26204.12789154  .00177994  00000+0  12882-2 0  9998
2 40021  98.0412 268.5702 0003896 226.4566 133.6372 15.72917143661389
QB50P1                  
1 40025U 14033R   26203.79923947  .00008602  00000+0  41700-3 0  9995
2 40025  98.0975 217.4558 0010565 102.9257 257.3156 15.18749882658434
LILACSAT-2              
1 40908U 15049K   26204.89320387  .00021214  00000+0  34572-3 0  9997
2 40908  97.4631 243.1525 0008639 116.2559 243.9583 15.52609279601445
FOX-1A (AO-85)          
1 40967U 15058D   26204.30272102  .00003792  00000+0  33669-3 0  9996
2 40967  64.7741 166.7324 0133071  42.7370 318.3997 14.91129767118955
CAS-2T & KS-1Q          
1 41847U 16066G   26204.46154537  .00000639  00000+0  98274-4 0  9993
2 41847  98.3807 279.7826 0341786  19.7084 341.6950 14.44780560510036
RADFXSAT (FOX-1B)       
1 43017U 17073E   26204.51789103  .00008409  00000+0  36402-3 0  9999
2 43017  97.4662  70.9927 0148677 202.5578 156.9074 15.13146521470885
DIWATA-2B               
1 43678U 18084H   26204.84631426  .00002173  00000+0  17702-3 0  9999
2 43678  98.1225  42.6621 0012280  57.4722 302.7685 15.00587913421713
ES'HAIL 2               
1 43700U 18090A   26204.54610483  .00000000  00000+0  00000+0 0  9995
2 43700   0.0186  49.6880 0002702 107.0586   6.9459  1.00273645 28049
FOX-1CLIFF (AO-95)      
1 43770U 18099N   26204.11741777  .00012936  00000+0  48430-3 0  9999
2 43770  97.4362 264.2441 0007956 208.6564 151.4239 15.27399464418700
ITASAT                  
1 43786U 18099AE  26204.57572126  .00006444  00000+0  30659-3 0  9997
2 43786  97.4011 255.3665 0011442 217.9737 142.0692 15.19457884418438
JY1SAT (JO-97)          
1 43803U 18099AX  26204.42449412  .00017809  00000+0  53040-3 0  9998
2 43803  97.4109 267.4075 0007346 133.9181 226.2670 15.34728198419183
UWE-4                   
1 43880U 18111E   26204.75570760  .00034567  00000+0  65482-3 0  9998
2 43880  97.5823 134.8907 0007599 164.6158 195.5324 15.48253700416434
TIANYAN 01              
1 44881U 19093C   26204.86403712  .00000192  00000+0  27741-4 0  9998
2 44881  97.7512 276.1992 0012832 332.4044  27.6490 14.86567508356866
RS-44 & BREEZE-KM R/B   
1 44909U 19096E   26204.59358229  .00000007  00000+0 -22705-4 0  9995
2 44909  82.5245 315.5155 0218350  59.4462 302.7988 12.79748902307004
SALSAT                  
1 46495U 20068K   26204.44213958  .00007378  00000+0  25456-3 0  9993
2 46495  97.8868 209.7289 0010091 164.5021 195.6529 15.30258663320903
XW-3 (CAS-9)            
1 50466U 21131B   26204.84636036  .00000484  00000+0  16308-3 0  9995
2 50466  98.4979 297.0386 0004030   7.3516 352.7731 14.41387583240393
GREENCUBE (IO-117)      
1 53109U 22080E   26204.60321860 -.00000003  00000+0  00000+0 0  9992
2 53109  70.1385 285.5830 0009166 281.8194  78.1437  6.42583371 94406
UMKA 1 (RS40S)          
1 57172U 23091G   26204.86904929  .00005444  00000+0  24686-3 0  9993
2 57172  97.5032 263.4297 0012147 359.8400   0.2829 15.21192425169589
CUBESX-HSE 3 (RS42S)    
1 57178U 23091N   26204.82442286  .00012615  00000+0  40958-3 0  9996
2 57178  97.5074 270.8923 0008902 328.6922  31.3788 15.32046871170032
MONITOR-3 (RS58S)       
1 57180U 23091Q   26204.86639389  .00010148  00000+0  36799-3 0  9992
2 57180  97.5065 268.5943 0010147 337.5725  22.5069 15.28499548169899
MONITOR-4 (RS57S)       
1 57182U 23091S   26204.84339579  .00010167  00000+0  36770-3 0  9990
2 57182  97.5059 268.5443 0010130 338.1076  21.9729 15.28588679169897
MONITOR-2 (RS39S)       
1 57184U 23091U   26204.87140064  .00004361  00000+0  21016-3 0  9990
2 57184  97.5053 262.9196 0010513 354.2056   5.9055 15.19212131169529
SVYATOBOR 1 (RS60S)     
1 57187U 23091X   26204.82376403  .00008087  00000+0  30615-3 0  9990
2 57187  97.5071 268.8533 0007901 331.9858  28.0954 15.27170432169903
VIZARD-METEO (RS38S)    
1 57189U 23091Z   26204.81101319  .00016585  00000+0  45865-3 0  9998
2 57189  97.5073 275.0548 0005163 301.3378  58.7360 15.37085049170317
POLYTECH-UNIVERSE 3 (R*)
1 57191U 23091AB  26204.82770694  .00004865  00000+0  23228-3 0  9997
2 57191  97.5029 262.3804 0015215   8.6074 351.5419 15.19426468169517
UTMN 2 (RS27S)          
1 57203U 23091AP  26204.82233475  .00012462  00000+0  39478-3 0  9998
2 57203  97.5069 272.5683 0006078 314.5905  45.4841 15.32860424170151
